361P/Spacewatch,e,13.9025,203.2555,219.0535,4.933699,0.0899384,0.43953919,189.5084,04/12.0/2024,2000,g 12.0,4.0
# From MPEC 2017-V13
362P/,e,15.5551,192.4950,53.5437,3.973528,0.1244342,0.27870289,347.6558,04/12.0/2024,2000,g 12.9,2.0
# From MPC114609
363P/Lemmon,e,5.3897,146.6601,340.8629,3.576525,0.1457176,0.51894870,328.6427,04/12.0/2024,2000,g 17.5,4.0
# From MPEC 2023-XP6
364P/PANSTARRS,e,12.1319,46.1495,212.1112,2.884666,0.2011689,0.72183213,67.1658,04/12.0/2024,2000,g 17.0,2.0
# From MPC111775
365P/PANSTARRS,e,9.8495,86.6566,67.4295,3.156458,0.1757535,0.58141219,32.6204,04/12.0/2024,2000,g 17.0,4.0
# From MPC114610
366P/Spacewatch,e,8.8570,70.7235,153.0257,3.498438,0.1506235,0.34831770,315.7174,04/12.0/2024,2000,g 15.0,4.0
# From MPC112395
367P/Catalina,e,8.4597,58.6610,172.7358,3.510050,0.1498767,0.27984720,318.8257,04/12.0/2024,2000,g 17.5,2.0
# From MPC114610
368P/NEAT,e,15.4811,257.8688,118.9506,5.532415,0.0757412,0.62637570,154.1304,04/12.0/2024,2000,g 14.0,4.0
# From MPC114610
369P/Hill,e,10.3228,47.2979,13.1876,4.379921,0.1075238,0.55588812,215.3248,04/12.0/2024,2000,g 15.0,4.0
# From MPEC 2021-F20
370P/NEAT,e,19.4237,55.0814,356.7393,6.437137,0.0603483,0.61552901,128.5853,04/12.0/2024,2000,g 13.0,4.0
# From MPC114610
371P/LINEAR-Skiff,e,17.3847,67.2838,308.5610,4.180486,0.1153092,0.47694848,232.1854,04/12.0/2024,2000,g 16.0,4.0
# From MPEC 2020-K19
372P/McNaught,e,9.5075,27.5508,326.0184,4.510620,0.1028844,0.15183286,205.4179,04/12.0/2024,2000,g 13.5,4.0
# From MPEC 2021-F20
373P/Rinner,e,13.7703,231.9459,221.0530,3.798854,0.1331144,0.39356061,243.3993,04/12.0/2024,2000,g 14.5,4.0
# From MPC114610
374P/Larson,e,10.7655,7.9055,51.5009,4.971056,0.0889265,0.46375732,170.3380,04/12.0/2024,2000,g 14.0,4.0
# From MPEC 2021-F20
375P/Hill,e,17.3657,359.8973,119.3804,5.547041,0.0754418,0.65971685,146.2037,04/12.0/2024,2000,g 16.0,4.0
# From MPEC 2022-K19
376P/LONEOS,e,1.1663,312.8890,285.4106,5.757672,0.0713401,0.51409619,119.1486,04/12.0/2024,2000,g 12.5,4.0
# From MPEC 2022-N37
377P/Scotti,e,9.0245,226.0382,354.8959,6.698090,0.0568562,0.25108456,78.0194,04/12.0/2024,2000,g  9.5,4.0
# From MPEC 2024-D33
378P/McNaught,e,19.1315,93.8430,193.4201,6.296026,0.0623885,0.46544376,79.7452,04/12.0/2024,2000,g 12.0,4.0
# From MPC115889
379P/Spacewatch,e,12.4466,30.5498,184.2142,3.491466,0.1510749,0.34945691,257.0770,04/12.0/2024,2000,g 15.0,4.0
# From MPEC 2023-C45
380P/PANSTARRS,e,8.0142,128.2860,87.8734,4.422487,0.1059752,0.33821946,192.5752,04/12.0/2024,2000,g 12.5,4.0
# From MPEC 2021-J28
381P/LINEAR-Spacewatch,e,28.3627,173.2891,173.8456,7.142903,0.0516288,0.68122171,85.6751,04/12.0/2024,2000,g 17.5,2.0
# From MPEC 2024-EF7
382P/Larson,e,8.2857,172.2557,162.5208,5.965137,0.0676509,0.27221381,58.9059,04/12.0/2024,2000,g  8.0,4.0
# From MPEC 2022-OB6
383P/Christensen,e,12.3210,207.8509,133.7578,3.547949,0.1474817,0.59885204,240.3399,04/12.0/2024,2000,g 18.0,4.0
# From MPEC 2022-OB6
384P/Kowalski,e,7.2832,354.2012,37.7053,2.898474,0.1997331,0.61629957,328.0149,04/12.0/2024,2000,g 19.5,4.0
# From MPEC 2021-F20
385P/Hill,e,16.8286,357.0688,44.3945,4.288735,0.1109712,0.40213231,185.2370,04/12.0/2024,2000,g 13.0,4.0
# From MPEC 2021-L04
386P/PANSTARRS,e,15.2396,134.9186,353.0805,4.050602,0.1208996,0.41700125,160.9723,04/12.0/2024,2000,g 14.5,4.0
# From MPEC 2021-J28
387P/Boattini,e,8.9351,259.2455,162.8222,4.797074,0.0938079,0.73708979,157.4044,04/12.0/2024,2000,g 15.0,4.0
# From MPEC 2021-S45
388P/Gibbs,e,23.8902,37.0313,42.3182,5.240592,0.0821549,0.61924215,141.5088,04/12.0/2024,2000,g 13.0,4.0
# From MPEC 2022-OB6
389P/Siding Spring,e,160.0863,218.8823,249.3857,5.632825,0.0737250,0.70503302,115.3348,04/12.0/2024,2000,g 16.0,4.0
# From MPEC 2024-EF7
390P/Gibbs,e,18.5400,152.2426,232.4776,5.814622,0.0702946,0.70723367,104.1149,04/12.0/2024,2000,g 12.0,4.0
# From MPEC 2021-F20
391P/Kowalski,e,21.2615,124.7893,187.2029,4.688136,0.0970965,0.11884916,215.1492,04/12.0/2024,2000,g  8.0,4.0
# From MPEC 2021-J28
392P/LINEAR,e,4.9317,24.8503,71.8936,6.140749,0.0647697,0.68372398,95.2782,04/12.0/2024,2000,g 14.5,4.0
# From MPEC 2023-T65
393P/Spacewatch-Hill,e,16.7873,36.3923,329.1564,4.796902,0.0938130,0.11990301,152.3719,04/12.0/2024,2000,g 11.0,4.0
# From MPEC 2020-KB7
394P/PANSTARRS,e,8.5295,98.1247,54.4034,4.328533,0.1094442,0.36777385,174.6153,04/12.0/2024,2000,g 16.0,2.4
# From MPEC 2024-C04
395P/Catalina-NEAT,e,3.5823,221.0352,99.6662,7.176527,0.0512664,0.41524355,40.1523,04/12.0/2024,2000,g 10.0,4.0
# From MPEC 2020-KB7
396P/,e,5.4394,136.6259,8.3164,6.800755,0.0555736,0.41636080,93.8763,04/12.0/2024,2000,g 12.0,4.0
# From MPEC 2022-OB6
397P/Lemmon,e,10.9257,8.2257,14.5560,3.831230,0.1314306,0.40504819,182.9268,04/12.0/2024,2000,g 12.0,4.0
# From MPEC 2021-L04
398P/Boattini,e,11.0220,320.1510,127.5001,3.125580,0.1783644,0.58356015,214.2891,04/12.0/2024,2000,g 15.5,4.0
# From MPEC 2023-XP6
399P/PANSTARRS,e,13.3214,207.1300,214.3942,3.792994,0.1334231,0.44743931,140.7299,04/12.0/2024,2000,g 14.0,4.0
# From MPEC 2022-ED3
400P/PANSTARRS,e,10.9295,176.4040,238.8577,3.561929,0.1466143,0.40971724,169.4941,04/12.0/2024,2000,g 15.5,2.8
# From MPEC 2022-K19
401P/McNaught,e,12.8016,359.9067,309.4226,5.777886,0.0709661,0.57877655,112.8079,04/12.0/2024,2000,g 12.5,4.0
# From MPEC 2024-F34
402P/LINEAR,e,30.8332,123.0708,326.8560,7.033700,0.0528358,0.43994113,44.8366,04/12.0/2024,2000,g  8.0,4.0
# From MPEC 2021-J28
403P/Catalina,e,12.3280,277.5791,163.8947,5.430397,0.0778855,0.50426299,101.4652,04/12.0/2024,2000,g 12.0,4.0
# From MPEC 2024-EF7
404P/Bressi,e,9.8014,260.0364,169.3612,4.728510,0.0958556,0.12600777,15.3347,04/12.0/2024,2000,g 10.0,4.0
# From MPEC 2021-L04
405P/Lemmon,e,9.3748,112.1899,3.2950,3.604843,0.1440040,0.68982723,173.4148,04/12.0/2024,2000,g 17.5,4.0
# From MPEC 2021-F20
406P/Gibbs,e,1.2111,352.4152,11.5411,3.578290,0.1456099,0.54156775,189.8898,04/12.0/2024,2000,g 17.0,4.0
# From MPEC 2022-YN2
407P/PANSTARRS-Fuls,e,4.8759,80.2492,93.4784,3.484973,0.1514973,0.37704766,233.5261,04/12.0/2024,2000,g 14.0,4.0
# From MPEC 2024-F34
408P/Novichonok-Gerke,e,19.3563,189.4438,226.5773,4.743327,0.0954068,0.26868131,52.8858,04/12.0/2024,2000,g 11.0,4.0
# From MPEC 2022-ED3
409P/LONEOS-Hill,e,17.1335,143.6488,15.0573,6.034256,0.0664919,0.70983743,77.7896,04/12.0/2024,2000,g 14.0,4.0
# From MPEC 2022-M21
410P/NEAT-LINEAR,e,9.3891,139.9708,313.1548,6.647759,0.0575031,0.51162189,58.8137,04/12.0/2024,2000,g 12.5,4.0
# From MPEC 2021-J28
411P/Christensen,e,12.3887,77.6528,46.5562,5.811372,0.0703536,0.58136791,82.5405,04/12.0/2024,2000,g 13.5,4.0
# From MPEC 2021-F20
412P/WISE,e,8.9310,0.8457,155.8990,3.110536,0.1796600,0.47893953,220.0645,04/12.0/2024,2000,g 17.0,4.0
# From MPEC 2022-OB6
413P/Larson,e,15.9792,39.2283,186.5429,3.731822,0.1367171,0.41970347,136.4749,04/12.0/2024,2000,g 14.0,4.0
# From MPEC 2021-BE3
414P/STEREO,e,23.4066,257.8177,210.6863,2.792854,0.2111698,0.81209620,247.5795,04/12.0/2024,2000,g 19.0,4.0
# From MPEC 2022-J42
415P/Tenagra,e,31.7971,160.2704,345.8859,4.109840,0.1182951,0.19506097,136.4545,04/12.0/2024,2000,g 12.0,4.0
# From MPEC 2021-L04
416P/Scotti,e,3.3618,355.7668,134.4079,4.007849,0.1228392,0.45495181,141.4237,04/12.0/2024,2000,g 15.5,4.0
# From MPEC 2021-W31
417P/NEOWISE,e,8.2970,124.2427,115.4869,3.309454,0.1637079,0.57041059,176.5106,04/12.0/2024,2000,g 16.5,4.0
# From MPEC 2022-TA0
418P/LINEAR,e,5.7802,277.6489,307.3691,5.094316,0.0857186,0.66378505,77.8488,04/12.0/2024,2000,g 13.0,4.0
# From MPEC 2023-UR6
419P/PANSTARRS,e,2.8013,40.4104,187.8677,3.527396,0.1487725,0.27606399,133.5173,04/12.0/2024,2000,g 12.5,4.0
# From MPEC 2024-C04
420P/Hill,e,14.4851,173.7951,156.5519,5.503650,0.0763357,0.49547118,52.8977,04/12.0/2024,2000,g 11.5,4.0
# From MPEC 2021-W31
421P/McNaught,e,10.0757,55.3315,259.8972,5.076325,0.0861747,0.67470468,101.0863,04/12.0/2024,2000,g 14.0,4.0
# From MPEC 2022-X67
422P/Christensen,e,39.5836,36.0251,304.8381,6.282396,0.0625916,0.50637328,51.3919,04/12.0/2024,2000,g 11.0,4.0
# From MPEC 2023-FK0
423P/Lemmon,e,8.3457,33.2980,80.5329,6.176271,0.0642118,0.12243016,59.9310,04/12.0/2024,2000,g  8.0,4.0
# From MPEC 2022-CN4
424P/LaSagra,e,8.6830,51.1926,312.5500,4.419326,0.1060889,0.69094919,94.7906,04/12.0/2024,2000,g 17.0,4.0
# From MPEC 2024-C04
425P/Kowalski,e,16.4205,210.0753,200.9066,6.345859,0.0616550,0.54402985,57.5841,04/12.0/2024,2000,g 12.0,4.0
# From MPEC 2024-A43
426P/PANSTARRS,e,17.7798,280.3951,118.5997,3.188140,0.1731402,0.16147727,36.9990,04/12.0/2024,2000,g 13.5,4.0
# From MPEC 2023-J29
428P/Gibbs,e,8.5061,299.3288,36.9020,3.487144,0.1513559,0.51872331,161.0171,04/12.0/2024,2000,g 15.0,4.0
# From MPEC 2024-EF7
429P/LINEAR-Hill,e,7.5166,322.0519,75.6612,3.554412,0.1470796,0.49130081,122.1752,04/12.0/2024,2000,g 15.5,4.0
# From MPEC 2022-L66
430P/Scotti,e,4.4752,54.6691,94.4241,3.104235,0.1802072,0.49982605,155.2985,04/12.0/2024,2000,g 16.5,4.0
# From MPEC 2024-EF7
431P/Scotti,e,22.3906,202.8431,199.9591,3.475760,0.1521001,0.47771866,119.9205,04/12.0/2024,2000,g 14.0,4.0
# From MPEC 2021-U31
432P/PANSTARRS,e,10.0683,239.1298,105.3235,3.036962,0.1862280,0.24132597,178.0284,04/12.0/2024,2000,g 17.0,4.0
# From MPEC 2024-D33
434P/Tenagra,e,6.3361,288.9368,128.3090,4.133543,0.1172790,0.27469884,105.3310,04/12.0/2024,2000,g 13.0,4.0
# From MPEC 2021-W31
435P/PANSTARRS,e,18.8749,98.5351,244.2439,3.020352,0.1877663,0.31802212,185.8669,04/12.0/2024,2000,g 17.0,4.0
# From MPEC 2022-X67
436P/Garradd,e,20.2012,87.1677,282.7087,5.934903,0.0681685,0.66959588,58.3239,04/12.0/2024,2000,g 14.5,4.0
# From MPEC 2023-B57
437P/Lemmon-PANSTARRS,e,3.6889,245.8437,206.8969,4.565472,0.1010359,0.25502310,60.7838,04/12.0/2024,2000,g 13.0,4.0
# From MPEC 2021-W47
438P/Christensen,e,8.2811,260.1169,59.0378,3.850680,0.1304362,0.41460541,191.6040,04/12.0/2024,2000,g 14.5,4.0
# From MPEC 2022-C56
439P/LINEAR,e,7.1136,56.4342,342.0789,3.490793,0.1511186,0.46950267,145.0125,04/12.0/2024,2000,g 13.5,4.0
# From MPEC 2022-WQ9
